ENVISAT                 
1 27386U 02009A   25335.31380465  .00000171  00000+0  69302-4 0  9997
2 27386  98.3583 286.3451 0001193  82.0023  84.4534 14.38992358245025
IDEFIX & ARIANE 42P R/B 
1 27422U 02021B   25335.25556810  .00000379  00000+0  16066-3 0  9992
2 27422  98.5770 270.0965 0012778 114.6252 245.6263 14.30936539229947
AQUA                    
1 27424U 02022A   25335.33919074  .00001349  00000+0  28037-3 0  9998
2 27424  98.4021 296.0343 0000693 104.6024  21.8751 14.61764550254360
CZ-4B R/B               
1 27432U 02024C   25335.18801920  .00000078  00000+0  63622-4 0  9990
2 27432  98.9018  23.9991 0049276 303.3574 125.0569 14.14523976215313
MIDORI II (ADEOS-II)    
1 27597U 02056A   25335.16393249  .00000318  00000+0  14285-3 0  9992
2 27597  98.7618 288.0605 0000443  12.1656 347.9536 14.29192817196223
H-2A R/B                
1 27601U 02056E   25334.88555021  .00000350  00000+0  13707-3 0  9998
2 27601  98.3050 294.1157 0071484  95.8956 323.3648 14.33660970199959
CZ-4B R/B               
1 28059U 03049C   25334.97288342  .00000452  00000+0  11531-3 0  9994
2 28059  98.6780 321.0930 0048366 171.6252 188.5762 14.54892048172241
CZ-2C R/B               
1 28222U 04012C   25335.22027208  .00040910  00000+0  61978-3 0  9991
2 28222  97.7451  26.8994 0017233 315.1890  44.7970 15.54371417188930
SL-16 R/B               
1 28353U 04021B   25335.30738033 -.00000070  00000+0 -11653-4 0  9991
2 28353  71.0022  78.9550 0005873 214.6880 145.3860 14.14582528108928
CZ-4B R/B               
1 28415U 04035C   25335.09532527  .00009473  00000+0  35383-3 0  9990
2 28415  97.3630   5.5968 0032384 320.6425  39.2460 15.27086654164857
CZ-2C R/B               
1 28480U 04046B   25335.24889458  .00000232  00000+0  10072-3 0  9991
2 28480  98.1979 251.3416 0140730  86.0160 275.7096 14.26932611 94469
ARIANE 5 R/B            
1 28499U 04049H   25335.19778085  .00001149  00000+0  13390-3 0  9995
2 28499  98.2518 135.0657 0083672 310.8670  48.5313 14.84969752131177
