CCSDS_OMM_VERS = 2.0
CREATION_DATE  = 
ORIGINATOR     = 

OBJECT_NAME    = ENVISAT
OBJECT_ID      = 2002-009A
CENTER_NAME    = EARTH
REF_FRAME      = TEME
TIME_SYSTEM    = UTC
MEAN_ELEMENT_THEORY = SGP/SGP4

EPOCH          = 2025-12-01T07:31:52.721760
MEAN_MOTION    = 14.38992358
ECCENTRICITY   = .00011932
INCLINATION    = 98.3583
RA_OF_ASC_NODE = 286.3451
ARG_OF_PERICENTER = 82.0023
MEAN_ANOMALY   = 84.4534

EPHEMERIS_TYPE = 0
CLASSIFICATION_TYPE = U
NORAD_CAT_ID   = 27386
ELEMENT_SET_NO = 999
REV_AT_EPOCH   = 24502
BSTAR          = .69302E-4
MEAN_MOTION_DOT = .171E-5
MEAN_MOTION_DDOT = 0

CCSDS_OMM_VERS = 2.0
CREATION_DATE  = 
ORIGINATOR     = 

OBJECT_NAME    = IDEFIX & ARIANE 42P R/B
OBJECT_ID      = 2002-021B
CENTER_NAME    = EARTH
REF_FRAME      = TEME
TIME_SYSTEM    = UTC
MEAN_ELEMENT_THEORY = SGP/SGP4

EPOCH          = 2025-12-01T06:08:01.083840
MEAN_MOTION    = 14.30936539
ECCENTRICITY   = .0012778
INCLINATION    = 98.5770
RA_OF_ASC_NODE = 270.0965
ARG_OF_PERICENTER = 114.6252
MEAN_ANOMALY   = 245.6263

EPHEMERIS_TYPE = 0
CLASSIFICATION_TYPE = U
NORAD_CAT_ID   = 27422
ELEMENT_SET_NO = 999
REV_AT_EPOCH   = 22994
BSTAR          = .16065518E-3
MEAN_MOTION_DOT = .379E-5
MEAN_MOTION_DDOT = 0

CCSDS_OMM_VERS = 2.0
CREATION_DATE  = 
ORIGINATOR     = 

OBJECT_NAME    = AQUA
OBJECT_ID      = 2002-022A
CENTER_NAME    = EARTH
REF_FRAME      = TEME
TIME_SYSTEM    = UTC
MEAN_ELEMENT_THEORY = SGP/SGP4

EPOCH          = 2025-12-01T08:08:26.079936
MEAN_MOTION    = 14.61764550
ECCENTRICITY   = .00006939
INCLINATION    = 98.4021
RA_OF_ASC_NODE = 296.0343
ARG_OF_PERICENTER = 104.6024
MEAN_ANOMALY   = 21.8751

EPHEMERIS_TYPE = 0
CLASSIFICATION_TYPE = U
NORAD_CAT_ID   = 27424
ELEMENT_SET_NO = 999
REV_AT_EPOCH   = 25436
BSTAR          = .28036905E-3
MEAN_MOTION_DOT = .1349E-4
MEAN_MOTION_DDOT = 0

CCSDS_OMM_VERS = 2.0
CREATION_DATE  = 
ORIGINATOR     = 

OBJECT_NAME    = CZ-4B R/B
OBJECT_ID      = 2002-024C
CENTER_NAME    = EARTH
REF_FRAME      = TEME
TIME_SYSTEM    = UTC
MEAN_ELEMENT_THEORY = SGP/SGP4

EPOCH          = 2025-12-01T04:30:44.858880
MEAN_MOTION    = 14.14523976
ECCENTRICITY   = .00492762
INCLINATION    = 98.9018
RA_OF_ASC_NODE = 23.9991
ARG_OF_PERICENTER = 303.3574
MEAN_ANOMALY   = 125.0569

EPHEMERIS_TYPE = 0
CLASSIFICATION_TYPE = U
NORAD_CAT_ID   = 27432
ELEMENT_SET_NO = 999
REV_AT_EPOCH   = 21531
BSTAR          = .6362159E-4
MEAN_MOTION_DOT = .78E-6
MEAN_MOTION_DDOT = 0

CCSDS_OMM_VERS = 2.0
CREATION_DATE  = 
ORIGINATOR     = 

OBJECT_NAME    = MIDORI II (ADEOS-II)
OBJECT_ID      = 2002-056A
CENTER_NAME    = EARTH
REF_FRAME      = TEME
TIME_SYSTEM    = UTC
MEAN_ELEMENT_THEORY = SGP/SGP4

EPOCH          = 2025-12-01T03:56:03.767136
MEAN_MOTION    = 14.29192817
ECCENTRICITY   = .00004437
INCLINATION    = 98.7618
RA_OF_ASC_NODE = 288.0605
ARG_OF_PERICENTER = 12.1656
MEAN_ANOMALY   = 347.9536

EPHEMERIS_TYPE = 0
CLASSIFICATION_TYPE = U
NORAD_CAT_ID   = 27597
ELEMENT_SET_NO = 999
REV_AT_EPOCH   = 19622
BSTAR          = .14284955E-3
MEAN_MOTION_DOT = .318E-5
MEAN_MOTION_DDOT = 0

CCSDS_OMM_VERS = 2.0
CREATION_DATE  = 
ORIGINATOR     = 

OBJECT_NAME    = H-2A R/B
OBJECT_ID      = 2002-056E
CENTER_NAME    = EARTH
REF_FRAME      = TEME
TIME_SYSTEM    = UTC
MEAN_ELEMENT_THEORY = SGP/SGP4

EPOCH          = 2025-11-30T21:15:11.538144
MEAN_MOTION    = 14.33660970
ECCENTRICITY   = .00714847
INCLINATION    = 98.3050
RA_OF_ASC_NODE = 294.1157
ARG_OF_PERICENTER = 95.8956
MEAN_ANOMALY   = 323.3648

EPHEMERIS_TYPE = 0
CLASSIFICATION_TYPE = U
NORAD_CAT_ID   = 27601
ELEMENT_SET_NO = 999
REV_AT_EPOCH   = 19995
BSTAR          = .13707133E-3
MEAN_MOTION_DOT = .35E-5
MEAN_MOTION_DDOT = 0

CCSDS_OMM_VERS = 2.0
CREATION_DATE  = 
ORIGINATOR     = 

OBJECT_NAME    = CZ-4B R/B
OBJECT_ID      = 2003-049C
CENTER_NAME    = EARTH
REF_FRAME      = TEME
TIME_SYSTEM    = UTC
MEAN_ELEMENT_THEORY = SGP/SGP4

EPOCH          = 2025-11-30T23:20:57.127488
MEAN_MOTION    = 14.54892048
ECCENTRICITY   = .00483667
INCLINATION    = 98.6780
RA_OF_ASC_NODE = 321.0930
ARG_OF_PERICENTER = 171.6252
MEAN_ANOMALY   = 188.5762

EPHEMERIS_TYPE = 0
CLASSIFICATION_TYPE = U
NORAD_CAT_ID   = 28059
ELEMENT_SET_NO = 999
REV_AT_EPOCH   = 17224
BSTAR          = .11530521E-3
MEAN_MOTION_DOT = .452E-5
MEAN_MOTION_DDOT = 0

CCSDS_OMM_VERS = 2.0
CREATION_DATE  = 
ORIGINATOR     = 

OBJECT_NAME    = CZ-2C R/B
OBJECT_ID      = 2004-012C
CENTER_NAME    = EARTH
REF_FRAME      = TEME
TIME_SYSTEM    = UTC
MEAN_ELEMENT_THEORY = SGP/SGP4

EPOCH          = 2025-12-01T05:17:11.507712
MEAN_MOTION    = 15.54371417
ECCENTRICITY   = .00172336
INCLINATION    = 97.7451
RA_OF_ASC_NODE = 26.8994
ARG_OF_PERICENTER = 315.1890
MEAN_ANOMALY   = 44.7970

EPHEMERIS_TYPE = 0
CLASSIFICATION_TYPE = U
NORAD_CAT_ID   = 28222
ELEMENT_SET_NO = 999
REV_AT_EPOCH   = 18893
BSTAR          = .61978011E-3
MEAN_MOTION_DOT = .4091E-3
MEAN_MOTION_DDOT = 0

CCSDS_OMM_VERS = 2.0
CREATION_DATE  = 
ORIGINATOR     = 

OBJECT_NAME    = SL-16 R/B
OBJECT_ID      = 2004-021B
CENTER_NAME    = EARTH
REF_FRAME      = TEME
TIME_SYSTEM    = UTC
MEAN_ELEMENT_THEORY = SGP/SGP4

EPOCH          = 2025-12-01T07:22:37.660512
MEAN_MOTION    = 14.14582528
ECCENTRICITY   = .00058738
INCLINATION    = 71.0022
RA_OF_ASC_NODE = 78.9550
ARG_OF_PERICENTER = 214.6880
MEAN_ANOMALY   = 145.3860

EPHEMERIS_TYPE = 0
CLASSIFICATION_TYPE = U
NORAD_CAT_ID   = 28353
ELEMENT_SET_NO = 999
REV_AT_EPOCH   = 10892
BSTAR          = -.1165288E-4
MEAN_MOTION_DOT = -.7E-6
MEAN_MOTION_DDOT = 0

CCSDS_OMM_VERS = 2.0
CREATION_DATE  = 
ORIGINATOR     = 

OBJECT_NAME    = CZ-4B R/B
OBJECT_ID      = 2004-035C
CENTER_NAME    = EARTH
REF_FRAME      = TEME
TIME_SYSTEM    = UTC
MEAN_ELEMENT_THEORY = SGP/SGP4

EPOCH          = 2025-12-01T02:17:16.103328
MEAN_MOTION    = 15.27086654
ECCENTRICITY   = .00323844
INCLINATION    = 97.3630
RA_OF_ASC_NODE = 5.5968
ARG_OF_PERICENTER = 320.6425
MEAN_ANOMALY   = 39.2460

EPHEMERIS_TYPE = 0
CLASSIFICATION_TYPE = U
NORAD_CAT_ID   = 28415
ELEMENT_SET_NO = 999
REV_AT_EPOCH   = 16485
BSTAR          = .35382663E-3
MEAN_MOTION_DOT = .9473E-4
MEAN_MOTION_DDOT = 0

CCSDS_OMM_VERS = 2.0
CREATION_DATE  = 
ORIGINATOR     = 

OBJECT_NAME    = CZ-2C R/B
OBJECT_ID      = 2004-046B
CENTER_NAME    = EARTH
REF_FRAME      = TEME
TIME_SYSTEM    = UTC
MEAN_ELEMENT_THEORY = SGP/SGP4

EPOCH          = 2025-12-01T05:58:24.491712
MEAN_MOTION    = 14.26932611
ECCENTRICITY   = .01407309
INCLINATION    = 98.1979
RA_OF_ASC_NODE = 251.3416
ARG_OF_PERICENTER = 86.0160
MEAN_ANOMALY   = 275.7096

EPHEMERIS_TYPE = 0
CLASSIFICATION_TYPE = U
NORAD_CAT_ID   = 28480
ELEMENT_SET_NO = 999
REV_AT_EPOCH   = 9446
BSTAR          = .10072163E-3
MEAN_MOTION_DOT = .232E-5
MEAN_MOTION_DDOT = 0

CCSDS_OMM_VERS = 2.0
CREATION_DATE  = 
ORIGINATOR     = 

OBJECT_NAME    = ARIANE 5 R/B
OBJECT_ID      = 2004-049H
CENTER_NAME    = EARTH
REF_FRAME      = TEME
TIME_SYSTEM    = UTC
MEAN_ELEMENT_THEORY = SGP/SGP4

EPOCH          = 2025-12-01T04:44:48.265440
MEAN_MOTION    = 14.84969752
ECCENTRICITY   = .00836726
INCLINATION    = 98.2518
RA_OF_ASC_NODE = 135.0657
ARG_OF_PERICENTER = 310.8670
MEAN_ANOMALY   = 48.5313

EPHEMERIS_TYPE = 0
CLASSIFICATION_TYPE = U
NORAD_CAT_ID   = 28499
ELEMENT_SET_NO = 999
REV_AT_EPOCH   = 13117
BSTAR          = .13389753E-3
MEAN_MOTION_DOT = .1149E-4
MEAN_MOTION_DDOT = 0

